{"type": "FeatureCollection", "name": "corridors", "crs": {"type": "name", "properties": {"name": "urn:ogc:def:crs:OGC:1.3:CRS84"}}, "features": [{"type": "Feature", "geometry": {"coordinates": [[[28.6386987, 41.0087427], [28.6411236, 41.0087082], [28.6411263, 41.0088163], [28.6387013, 41.0088508], [28.6386987, 41.0087427]]], "type": "Polygon"}, "properties": {"unit_id": "L0-CORR", "level": 0, "category": "walkway"}}, {"type": "Feature", "geometry": {"coordinates": [[[28.6394846, 41.0087856], [28.6394835, 41.0087985], [28.6394795, 41.0088113], [28.6394728, 41.0088237], [28.6394635, 41.0088354], [28.6394517, 41.0088464], [28.6394375, 41.0088563], [28.6394214, 41.0088651], [28.6394035, 41.0088726], [28.6393841, 41.0088786], [28.6393636, 41.008883], [28.6393423, 41.0088858], [28.6393206, 41.008887], [28.6392988, 41.0088865], [28.6392774, 41.0088842], [28.6392567, 41.0088804], [28.6392371, 41.0088749], [28.6392188, 41.008868], [28.6392022, 41.0088597], [28.6391876, 41.0088501], [28.6391752, 41.0088395], [28.6391653, 41.008828], [28.639158, 41.0088159], [28.6391535, 41.0088032], [28.6391517, 41.0087903], [28.6391528, 41.0087774], [28.6391568, 41.0087646], [28.6391634, 41.0087522], [28.6391728, 41.0087405], [28.6391846, 41.0087295], [28.6391987, 41.0087196], [28.6392149, 41.0087108], [28.6392328, 41.0087034], [28.6392522, 41.0086974], [28.6392727, 41.0086929], [28.639294, 41.0086901], [28.6393157, 41.0086889], [28.6393374, 41.0086894], [28.6393588, 41.0086917], [28.6393796, 41.0086955], [28.6393992, 41.008701], [28.6394175, 41.0087079], [28.6394341, 41.0087162], [28.6394487, 41.0087258], [28.639461, 41.0087364], [28.6394709, 41.0087479], [28.6394782, 41.00876], [28.6394828, 41.0087727], [28.6394846, 41.0087856]]], "type": "Polygon"}, "properties": {"unit_id": "L0-ATR60", "level": 0, "category": "atrium"}}, {"type": "Feature", "geometry": {"coordinates": [[[28.6405544, 41.0087704], [28.6405533, 41.0087833], [28.6405494, 41.0087961], [28.6405427, 41.0088084], [28.6405333, 41.0088202], [28.6405215, 41.0088312], [28.6405074, 41.0088411], [28.6404912, 41.0088499], [28.6404733, 41.0088573], [28.6404539, 41.0088633], [28.6404334, 41.0088678], [28.6404121, 41.0088706], [28.6403904, 41.0088718], [28.6403687, 41.0088712], [28.6403473, 41.008869], [28.6403266, 41.0088651], [28.6403069, 41.0088597], [28.6402886, 41.0088528], [28.640272, 41.0088444], [28.6402574, 41.0088349], [28.6402451, 41.0088243], [28.6402352, 41.0088128], [28.6402279, 41.0088007], [28.6402233, 41.008788], [28.6402216, 41.0087751], [28.6402227, 41.0087622], [28.6402266, 41.0087494], [28.6402333, 41.008737], [28.6402426, 41.0087253], [28.6402544, 41.0087143], [28.6402686, 41.0087044], [28.6402847, 41.0086956], [28.6403026, 41.0086881], [28.640322, 41.0086821], [28.6403425, 41.0086777], [28.6403638, 41.0086748], [28.6403855, 41.0086737], [28.6404073, 41.0086742], [28.6404287, 41.0086764], [28.6404494, 41.0086803], [28.6404691, 41.0086858], [28.6404873, 41.0086927], [28.6405039, 41.008701], [28.6405185, 41.0087106], [28.6405309, 41.0087212], [28.6405408, 41.0087326], [28.6405481, 41.0087448], [28.6405526, 41.0087575], [28.6405544, 41.0087704]]], "type": "Polygon"}, "properties": {"unit_id": "L0-ATR150", "level": 0, "category": "atrium"}}, {"type": "Feature", "geometry": {"coordinates": [[[28.6389259, 41.0087935], [28.6389249, 41.0088062], [28.6389212, 41.0088187], [28.6389151, 41.0088305], [28.6389066, 41.0088415], [28.6388959, 41.0088513], [28.6388834, 41.0088597], [28.6388692, 41.0088666], [28.6388538, 41.0088717], [28.6388376, 41.0088749], [28.6388209, 41.0088761], [28.6388041, 41.0088753], [28.6387877, 41.0088726], [28.6387721, 41.008868], [28.6387576, 41.0088615], [28.6387446, 41.0088534], [28.6387335, 41.0088439], [28.6387245, 41.0088332], [28.6387177, 41.0088215], [28.6387135, 41.0088092], [28.6387119, 41.0087966], [28.6387129, 41.0087839], [28.6387165, 41.0087715], [28.6387226, 41.0087596], [28.6387311, 41.0087487], [28.6387418, 41.0087388], [28.6387544, 41.0087304], [28.6387685, 41.0087235], [28.6387839, 41.0087185], [28.6388002, 41.0087153], [28.6388169, 41.008714], [28.6388336, 41.0087148], [28.63885, 41.0087175], [28.6388657, 41.0087222], [28.6388801, 41.0087286], [28.6388931, 41.0087367], [28.6389042, 41.0087462], [28.6389133, 41.0087569], [28.63892, 41.0087686], [28.6389242, 41.0087809], [28.6389259, 41.0087935]]], "type": "Polygon"}, "properties": {"unit_id": "L0-ROT18", "level": 0, "category": "rotunda"}}, {"type": "Feature", "geometry": {"coordinates": [[[28.6411131, 41.0087624], [28.6411121, 41.0087751], [28.6411085, 41.0087875], [28.6411023, 41.0087994], [28.6410938, 41.0088103], [28.6410832, 41.0088202], [28.6410706, 41.0088286], [28.6410565, 41.0088354], [28.6410411, 41.0088405], [28.6410248, 41.0088437], [28.6410081, 41.008845], [28.6409914, 41.0088442], [28.640975, 41.0088415], [28.6409593, 41.0088368], [28.6409448, 41.0088304], [28.6409319, 41.0088223], [28.6409207, 41.0088128], [28.6409117, 41.0088021], [28.640905, 41.0087904], [28.6409007, 41.0087781], [28.6408991, 41.0087655], [28.6409001, 41.0087528], [28.6409037, 41.0087403], [28.6409099, 41.0087285], [28.6409184, 41.0087175], [28.640929, 41.0087077], [28.6409416, 41.0086993], [28.6409557, 41.0086924], [28.6409711, 41.0086873], [28.6409874, 41.0086841], [28.6410041, 41.0086829], [28.6410209, 41.0086837], [28.6410372, 41.0086864], [28.6410529, 41.008691], [28.6410674, 41.0086975], [28.6410803, 41.0087055], [28.6410915, 41.0087151], [28.6411005, 41.0087258], [28.6411072, 41.0087374], [28.6411115, 41.0087497], [28.6411131, 41.0087624]]], "type": "Polygon"}, "properties": {"unit_id": "L0-ROT202", "level": 0, "category": "rotunda"}}, {"type": "Feature", "geometry": {"coordinates": [[[28.6398425, 41.0088345], [28.6400327, 41.0088318], [28.6400381, 41.0090479], [28.6398479, 41.0090507], [28.6398425, 41.0088345]]], "type": "Polygon"}, "properties": {"unit_id": "L0-SPUR", "level": 0, "category": "walkway"}}, {"type": "Feature", "geometry": {"coordinates": [[[28.6386987, 41.0087427], [28.6411236, 41.0087082], [28.6411263, 41.0088163], [28.6387013, 41.0088508], [28.6386987, 41.0087427]]], "type": "Polygon"}, "properties": {"unit_id": "L1-CORR", "level": 1, "category": "walkway"}}, {"type": "Feature", "geometry": {"coordinates": [[[28.6394846, 41.0087856], [28.6394835, 41.0087985], [28.6394795, 41.0088113], [28.6394728, 41.0088237], [28.6394635, 41.0088354], [28.6394517, 41.0088464], [28.6394375, 41.0088563], [28.6394214, 41.0088651], [28.6394035, 41.0088726], [28.6393841, 41.0088786], [28.6393636, 41.008883], [28.6393423, 41.0088858], [28.6393206, 41.008887], [28.6392988, 41.0088865], [28.6392774, 41.0088842], [28.6392567, 41.0088804], [28.6392371, 41.0088749], [28.6392188, 41.008868], [28.6392022, 41.0088597], [28.6391876, 41.0088501], [28.6391752, 41.0088395], [28.6391653, 41.008828], [28.639158, 41.0088159], [28.6391535, 41.0088032], [28.6391517, 41.0087903], [28.6391528, 41.0087774], [28.6391568, 41.0087646], [28.6391634, 41.0087522], [28.6391728, 41.0087405], [28.6391846, 41.0087295], [28.6391987, 41.0087196], [28.6392149, 41.0087108], [28.6392328, 41.0087034], [28.6392522, 41.0086974], [28.6392727, 41.0086929], [28.639294, 41.0086901], [28.6393157, 41.0086889], [28.6393374, 41.0086894], [28.6393588, 41.0086917], [28.6393796, 41.0086955], [28.6393992, 41.008701], [28.6394175, 41.0087079], [28.6394341, 41.0087162], [28.6394487, 41.0087258], [28.639461, 41.0087364], [28.6394709, 41.0087479], [28.6394782, 41.00876], [28.6394828, 41.0087727], [28.6394846, 41.0087856]]], "type": "Polygon"}, "properties": {"unit_id": "L1-ATR60", "level": 1, "category": "atrium"}}, {"type": "Feature", "geometry": {"coordinates": [[[28.6405544, 41.0087704], [28.6405533, 41.0087833], [28.6405494, 41.0087961], [28.6405427, 41.0088084], [28.6405333, 41.0088202], [28.6405215, 41.0088312], [28.6405074, 41.0088411], [28.6404912, 41.0088499], [28.6404733, 41.0088573], [28.6404539, 41.0088633], [28.6404334, 41.0088678], [28.6404121, 41.0088706], [28.6403904, 41.0088718], [28.6403687, 41.0088712], [28.6403473, 41.008869], [28.6403266, 41.0088651], [28.6403069, 41.0088597], [28.6402886, 41.0088528], [28.640272, 41.0088444], [28.6402574, 41.0088349], [28.6402451, 41.0088243], [28.6402352, 41.0088128], [28.6402279, 41.0088007], [28.6402233, 41.008788], [28.6402216, 41.0087751], [28.6402227, 41.0087622], [28.6402266, 41.0087494], [28.6402333, 41.008737], [28.6402426, 41.0087253], [28.6402544, 41.0087143], [28.6402686, 41.0087044], [28.6402847, 41.0086956], [28.6403026, 41.0086881], [28.640322, 41.0086821], [28.6403425, 41.0086777], [28.6403638, 41.0086748], [28.6403855, 41.0086737], [28.6404073, 41.0086742], [28.6404287, 41.0086764], [28.6404494, 41.0086803], [28.6404691, 41.0086858], [28.6404873, 41.0086927], [28.6405039, 41.008701], [28.6405185, 41.0087106], [28.6405309, 41.0087212], [28.6405408, 41.0087326], [28.6405481, 41.0087448], [28.6405526, 41.0087575], [28.6405544, 41.0087704]]], "type": "Polygon"}, "properties": {"unit_id": "L1-ATR150", "level": 1, "category": "atrium"}}, {"type": "Feature", "geometry": {"coordinates": [[[28.6389259, 41.0087935], [28.6389249, 41.0088062], [28.6389212, 41.0088187], [28.6389151, 41.0088305], [28.6389066, 41.0088415], [28.6388959, 41.0088513], [28.6388834, 41.0088597], [28.6388692, 41.0088666], [28.6388538, 41.0088717], [28.6388376, 41.0088749], [28.6388209, 41.0088761], [28.6388041, 41.0088753], [28.6387877, 41.0088726], [28.6387721, 41.008868], [28.6387576, 41.0088615], [28.6387446, 41.0088534], [28.6387335, 41.0088439], [28.6387245, 41.0088332], [28.6387177, 41.0088215], [28.6387135, 41.0088092], [28.6387119, 41.0087966], [28.6387129, 41.0087839], [28.6387165, 41.0087715], [28.6387226, 41.0087596], [28.6387311, 41.0087487], [28.6387418, 41.0087388], [28.6387544, 41.0087304], [28.6387685, 41.0087235], [28.6387839, 41.0087185], [28.6388002, 41.0087153], [28.6388169, 41.008714], [28.6388336, 41.0087148], [28.63885, 41.0087175], [28.6388657, 41.0087222], [28.6388801, 41.0087286], [28.6388931, 41.0087367], [28.6389042, 41.0087462], [28.6389133, 41.0087569], [28.63892, 41.0087686], [28.6389242, 41.0087809], [28.6389259, 41.0087935]]], "type": "Polygon"}, "properties": {"unit_id": "L1-ROT18", "level": 1, "category": "rotunda"}}, {"type": "Feature", "geometry": {"coordinates": [[[28.6411131, 41.0087624], [28.6411121, 41.0087751], [28.6411085, 41.0087875], [28.6411023, 41.0087994], [28.6410938, 41.0088103], [28.6410832, 41.0088202], [28.6410706, 41.0088286], [28.6410565, 41.0088354], [28.6410411, 41.0088405], [28.6410248, 41.0088437], [28.6410081, 41.008845], [28.6409914, 41.0088442], [28.640975, 41.0088415], [28.6409593, 41.0088368], [28.6409448, 41.0088304], [28.6409319, 41.0088223], [28.6409207, 41.0088128], [28.6409117, 41.0088021], [28.640905, 41.0087904], [28.6409007, 41.0087781], [28.6408991, 41.0087655], [28.6409001, 41.0087528], [28.6409037, 41.0087403], [28.6409099, 41.0087285], [28.6409184, 41.0087175], [28.640929, 41.0087077], [28.6409416, 41.0086993], [28.6409557, 41.0086924], [28.6409711, 41.0086873], [28.6409874, 41.0086841], [28.6410041, 41.0086829], [28.6410209, 41.0086837], [28.6410372, 41.0086864], [28.6410529, 41.008691], [28.6410674, 41.0086975], [28.6410803, 41.0087055], [28.6410915, 41.0087151], [28.6411005, 41.0087258], [28.6411072, 41.0087374], [28.6411115, 41.0087497], [28.6411131, 41.0087624]]], "type": "Polygon"}, "properties": {"unit_id": "L1-ROT202", "level": 1, "category": "rotunda"}}, {"type": "Feature", "geometry": {"coordinates": [[[28.6398425, 41.0088345], [28.6400327, 41.0088318], [28.6400381, 41.0090479], [28.6398479, 41.0090507], [28.6398425, 41.0088345]]], "type": "Polygon"}, "properties": {"unit_id": "L1-SPUR", "level": 1, "category": "walkway"}}, {"type": "Feature", "geometry": {"coordinates": [[[28.6386987, 41.0087427], [28.6411236, 41.0087082], [28.6411263, 41.0088163], [28.6387013, 41.0088508], [28.6386987, 41.0087427]]], "type": "Polygon"}, "properties": {"unit_id": "L2-CORR", "level": 2, "category": "walkway"}}, {"type": "Feature", "geometry": {"coordinates": [[[28.6394846, 41.0087856], [28.6394835, 41.0087985], [28.6394795, 41.0088113], [28.6394728, 41.0088237], [28.6394635, 41.0088354], [28.6394517, 41.0088464], [28.6394375, 41.0088563], [28.6394214, 41.0088651], [28.6394035, 41.0088726], [28.6393841, 41.0088786], [28.6393636, 41.008883], [28.6393423, 41.0088858], [28.6393206, 41.008887], [28.6392988, 41.0088865], [28.6392774, 41.0088842], [28.6392567, 41.0088804], [28.6392371, 41.0088749], [28.6392188, 41.008868], [28.6392022, 41.0088597], [28.6391876, 41.0088501], [28.6391752, 41.0088395], [28.6391653, 41.008828], [28.639158, 41.0088159], [28.6391535, 41.0088032], [28.6391517, 41.0087903], [28.6391528, 41.0087774], [28.6391568, 41.0087646], [28.6391634, 41.0087522], [28.6391728, 41.0087405], [28.6391846, 41.0087295], [28.6391987, 41.0087196], [28.6392149, 41.0087108], [28.6392328, 41.0087034], [28.6392522, 41.0086974], [28.6392727, 41.0086929], [28.639294, 41.0086901], [28.6393157, 41.0086889], [28.6393374, 41.0086894], [28.6393588, 41.0086917], [28.6393796, 41.0086955], [28.6393992, 41.008701], [28.6394175, 41.0087079], [28.6394341, 41.0087162], [28.6394487, 41.0087258], [28.639461, 41.0087364], [28.6394709, 41.0087479], [28.6394782, 41.00876], [28.6394828, 41.0087727], [28.6394846, 41.0087856]]], "type": "Polygon"}, "properties": {"unit_id": "L2-ATR60", "level": 2, "category": "atrium"}}, {"type": "Feature", "geometry": {"coordinates": [[[28.6405544, 41.0087704], [28.6405533, 41.0087833], [28.6405494, 41.0087961], [28.6405427, 41.0088084], [28.6405333, 41.0088202], [28.6405215, 41.0088312], [28.6405074, 41.0088411], [28.6404912, 41.0088499], [28.6404733, 41.0088573], [28.6404539, 41.0088633], [28.6404334, 41.0088678], [28.6404121, 41.0088706], [28.6403904, 41.0088718], [28.6403687, 41.0088712], [28.6403473, 41.008869], [28.6403266, 41.0088651], [28.6403069, 41.0088597], [28.6402886, 41.0088528], [28.640272, 41.0088444], [28.6402574, 41.0088349], [28.6402451, 41.0088243], [28.6402352, 41.0088128], [28.6402279, 41.0088007], [28.6402233, 41.008788], [28.6402216, 41.0087751], [28.6402227, 41.0087622], [28.6402266, 41.0087494], [28.6402333, 41.008737], [28.6402426, 41.0087253], [28.6402544, 41.0087143], [28.6402686, 41.0087044], [28.6402847, 41.0086956], [28.6403026, 41.0086881], [28.640322, 41.0086821], [28.6403425, 41.0086777], [28.6403638, 41.0086748], [28.6403855, 41.0086737], [28.6404073, 41.0086742], [28.6404287, 41.0086764], [28.6404494, 41.0086803], [28.6404691, 41.0086858], [28.6404873, 41.0086927], [28.6405039, 41.008701], [28.6405185, 41.0087106], [28.6405309, 41.0087212], [28.6405408, 41.0087326], [28.6405481, 41.0087448], [28.6405526, 41.0087575], [28.6405544, 41.0087704]]], "type": "Polygon"}, "properties": {"unit_id": "L2-ATR150", "level": 2, "category": "atrium"}}, {"type": "Feature", "geometry": {"coordinates": [[[28.6389259, 41.0087935], [28.6389249, 41.0088062], [28.6389212, 41.0088187], [28.6389151, 41.0088305], [28.6389066, 41.0088415], [28.6388959, 41.0088513], [28.6388834, 41.0088597], [28.6388692, 41.0088666], [28.6388538, 41.0088717], [28.6388376, 41.0088749], [28.6388209, 41.0088761], [28.6388041, 41.0088753], [28.6387877, 41.0088726], [28.6387721, 41.008868], [28.6387576, 41.0088615], [28.6387446, 41.0088534], [28.6387335, 41.0088439], [28.6387245, 41.0088332], [28.6387177, 41.0088215], [28.6387135, 41.0088092], [28.6387119, 41.0087966], [28.6387129, 41.0087839], [28.6387165, 41.0087715], [28.6387226, 41.0087596], [28.6387311, 41.0087487], [28.6387418, 41.0087388], [28.6387544, 41.0087304], [28.6387685, 41.0087235], [28.6387839, 41.0087185], [28.6388002, 41.0087153], [28.6388169, 41.008714], [28.6388336, 41.0087148], [28.63885, 41.0087175], [28.6388657, 41.0087222], [28.6388801, 41.0087286], [28.6388931, 41.0087367], [28.6389042, 41.0087462], [28.6389133, 41.0087569], [28.63892, 41.0087686], [28.6389242, 41.0087809], [28.6389259, 41.0087935]]], "type": "Polygon"}, "properties": {"unit_id": "L2-ROT18", "level": 2, "category": "rotunda"}}, {"type": "Feature", "geometry": {"coordinates": [[[28.6411131, 41.0087624], [28.6411121, 41.0087751], [28.6411085, 41.0087875], [28.6411023, 41.0087994], [28.6410938, 41.0088103], [28.6410832, 41.0088202], [28.6410706, 41.0088286], [28.6410565, 41.0088354], [28.6410411, 41.0088405], [28.6410248, 41.0088437], [28.6410081, 41.008845], [28.6409914, 41.0088442], [28.640975, 41.0088415], [28.6409593, 41.0088368], [28.6409448, 41.0088304], [28.6409319, 41.0088223], [28.6409207, 41.0088128], [28.6409117, 41.0088021], [28.640905, 41.0087904], [28.6409007, 41.0087781], [28.6408991, 41.0087655], [28.6409001, 41.0087528], [28.6409037, 41.0087403], [28.6409099, 41.0087285], [28.6409184, 41.0087175], [28.640929, 41.0087077], [28.6409416, 41.0086993], [28.6409557, 41.0086924], [28.6409711, 41.0086873], [28.6409874, 41.0086841], [28.6410041, 41.0086829], [28.6410209, 41.0086837], [28.6410372, 41.0086864], [28.6410529, 41.008691], [28.6410674, 41.0086975], [28.6410803, 41.0087055], [28.6410915, 41.0087151], [28.6411005, 41.0087258], [28.6411072, 41.0087374], [28.6411115, 41.0087497], [28.6411131, 41.0087624]]], "type": "Polygon"}, "properties": {"unit_id": "L2-ROT202", "level": 2, "category": "rotunda"}}, {"type": "Feature", "geometry": {"coordinates": [[[28.6398425, 41.0088345], [28.6400327, 41.0088318], [28.6400381, 41.0090479], [28.6398479, 41.0090507], [28.6398425, 41.0088345]]], "type": "Polygon"}, "properties": {"unit_id": "L2-SPUR", "level": 2, "category": "walkway"}}]}