{"type": "FeatureCollection", "name": "entrances", "crs": {"type": "name", "properties": {"name": "urn:ogc:def:crs:OGC:1.3:CRS84"}}, "features": [{"type": "Feature", "geometry": {"coordinates": [28.6387, 41.0087967], "type": "Point"}, "properties": {"name": "Bati Giris", "level": 0}}, {"type": "Feature", "geometry": {"coordinates": [28.641125, 41.0087622], "type": "Point"}, "properties": {"name": "Dogu Giris", "level": 0}}, {"type": "Feature", "geometry": {"coordinates": [28.6387, 41.0087967], "type": "Point"}, "properties": {"name": "Bati Giris", "level": 1}}, {"type": "Feature", "geometry": {"coordinates": [28.641125, 41.0087622], "type": "Point"}, "properties": {"name": "Dogu Giris", "level": 1}}, {"type": "Feature", "geometry": {"coordinates": [28.6387, 41.0087967], "type": "Point"}, "properties": {"name": "Bati Giris", "level": 2}}, {"type": "Feature", "geometry": {"coordinates": [28.641125, 41.0087622], "type": "Point"}, "properties": {"name": "Dogu Giris", "level": 2}}, {"type": "Feature", "geometry": {"coordinates": [28.639943, 41.0090493], "type": "Point"}, "properties": {"name": "Otopark Baglantisi", "level": 0}}]}