{"type": "FeatureCollection", "name": "kiosks", "crs": {"type": "name", "properties": {"name": "urn:ogc:def:crs:OGC:1.3:CRS84"}}, "features": [{"type": "Feature", "geometry": {"coordinates": [[[28.6383667, 41.0087835], [28.6384975, 41.0087816], [28.6384997, 41.0088717], [28.638369, 41.0088735], [28.6383667, 41.0087835]]], "type": "Polygon"}, "properties": {"unit_id": "K1", "name": "Gloria Jean's"}}, {"type": "Feature", "geometry": {"coordinates": [[[28.638364, 41.0086754], [28.6384948, 41.0086736], [28.6384968, 41.0087546], [28.6383661, 41.0087565], [28.638364, 41.0086754]]], "type": "Polygon"}, "properties": {"unit_id": "K2", "name": "Harmoni Bufe"}}, {"type": "Feature", "geometry": {"coordinates": [[[28.6383614, 41.0085674], [28.6384921, 41.0085655], [28.6384941, 41.0086465], [28.6383634, 41.0086484], [28.6383614, 41.0085674]]], "type": "Polygon"}, "properties": {"unit_id": "K3", "name": "Cicekci"}}]}