{"type": "FeatureCollection", "name": "parking", "crs": {"type": "name", "properties": {"name": "urn:ogc:def:crs:OGC:1.3:CRS84"}}, "features": [{"type": "Feature", "geometry": {"coordinates": [[[28.6394437, 41.0090564], [28.6408702, 41.0090361], [28.6408858, 41.0096664], [28.6394593, 41.0096867], [28.6394437, 41.0090564]]], "type": "Polygon"}, "properties": {"level": 0, "category": "parking"}}, {"type": "Feature", "geometry": {"coordinates": [[[28.6410781, 41.0092673], [28.6410768, 41.0092829], [28.6410724, 41.009298], [28.6410649, 41.0093125], [28.6410545, 41.0093259], [28.6410415, 41.0093379], [28.6410261, 41.0093482], [28.6410088, 41.0093566], [28.64099, 41.0093628], [28.6409702, 41.0093667], [28.6409497, 41.0093683], [28.6409293, 41.0093673], [28.6409092, 41.009364], [28.6408901, 41.0093583], [28.6408724, 41.0093504], [28.6408566, 41.0093406], [28.640843, 41.0093289], [28.6408319, 41.0093158], [28.6408237, 41.0093016], [28.6408185, 41.0092865], [28.6408165, 41.0092711], [28.6408178, 41.0092555], [28.6408222, 41.0092404], [28.6408297, 41.0092259], [28.6408401, 41.0092125], [28.6408531, 41.0092005], [28.6408684, 41.0091902], [28.6408857, 41.0091818], [28.6409045, 41.0091756], [28.6409244, 41.0091717], [28.6409448, 41.0091702], [28.6409653, 41.0091711], [28.6409854, 41.0091744], [28.6410045, 41.0091801], [28.6410222, 41.009188], [28.641038, 41.0091978], [28.6410516, 41.0092095], [28.6410627, 41.0092226], [28.6410709, 41.0092368], [28.6410761, 41.0092519], [28.6410781, 41.0092673]]], "type": "Polygon"}, "properties": {"level": 0, "category": "ramp"}}, {"type": "Feature", "geometry": {"coordinates": [[[28.6410601, 41.0095018], [28.6410591, 41.0095145], [28.6410555, 41.0095269], [28.6410493, 41.0095388], [28.6410408, 41.0095497], [28.6410302, 41.0095595], [28.6410176, 41.009568], [28.6410035, 41.0095748], [28.6409881, 41.0095799], [28.6409718, 41.0095831], [28.6409551, 41.0095844], [28.6409384, 41.0095836], [28.640922, 41.0095809], [28.6409063, 41.0095762], [28.6408918, 41.0095698], [28.6408789, 41.0095617], [28.6408677, 41.0095522], [28.6408587, 41.0095415], [28.640852, 41.0095298], [28.6408477, 41.0095175], [28.6408461, 41.0095048], [28.6408471, 41.0094921], [28.6408507, 41.0094797], [28.6408569, 41.0094679], [28.6408654, 41.0094569], [28.640876, 41.0094471], [28.6408886, 41.0094387], [28.6409027, 41.0094318], [28.6409181, 41.0094267], [28.6409344, 41.0094235], [28.6409511, 41.0094223], [28.6409679, 41.009423], [28.6409842, 41.0094258], [28.6409999, 41.0094304], [28.6410144, 41.0094369], [28.6410273, 41.0094449], [28.6410385, 41.0094545], [28.6410475, 41.0094652], [28.6410542, 41.0094768], [28.6410585, 41.0094891], [28.6410601, 41.0095018]]], "type": "Polygon"}, "properties": {"level": 0, "category": "ramp"}}]}