{"type": "FeatureCollection", "name": "units", "crs": {"type": "name", "properties": {"name": "urn:ogc:def:crs:OGC:1.3:CRS84"}}, "features": [{"type": "Feature", "geometry": {"coordinates": [[[28.6386538, 41.0088515], [28.6390104, 41.0088464], [28.639014, 41.0089905], [28.6386574, 41.0089955], [28.6386538, 41.0088515]]], "type": "Polygon"}, "properties": {"unit_id": "L0-U01", "level": 0, "category": "retail", "name": "LC Waikiki", "area_m2": 480.0}}, {"type": "Feature", "geometry": {"coordinates": [[[28.6386475, 41.0085993], [28.6390042, 41.0085943], [28.6390077, 41.0087383], [28.6386511, 41.0087434], [28.6386475, 41.0085993]]], "type": "Polygon"}, "properties": {"unit_id": "L0-U02", "level": 0, "category": "retail", "name": "LC Waikiki", "area_m2": 480.0}}, {"type": "Feature", "geometry": {"coordinates": [[[28.6408172, 41.0088207], [28.6411739, 41.0088156], [28.6411774, 41.0089597], [28.6408208, 41.0089647], [28.6408172, 41.0088207]]], "type": "Polygon"}, "properties": {"unit_id": "L0-U03", "level": 0, "category": "retail", "name": "Boyner", "area_m2": 480.0}}, {"type": "Feature", "geometry": {"coordinates": [[[28.640811, 41.0085685], [28.6411676, 41.0085635], [28.6411712, 41.0087075], [28.6408146, 41.0087126], [28.640811, 41.0085685]]], "type": "Polygon"}, "properties": {"unit_id": "L0-U04", "level": 0, "category": "retail", "name": "Boyner", "area_m2": 480.0}}, {"type": "Feature", "geometry": {"coordinates": [[[28.6390342, 41.008846], [28.639159, 41.0088443], [28.6391626, 41.0089883], [28.6390378, 41.0089901], [28.6390342, 41.008846]]], "type": "Polygon"}, "properties": {"unit_id": "L0-U05", "level": 0, "category": "retail", "name": "DeFacto", "area_m2": 168.0}}, {"type": "Feature", "geometry": {"coordinates": [[[28.6390279, 41.0085939], [28.6391527, 41.0085921], [28.6391563, 41.0087362], [28.6390315, 41.008738], [28.6390279, 41.0085939]]], "type": "Polygon"}, "properties": {"unit_id": "L0-U06", "level": 0, "category": "retail", "name": "Koton", "area_m2": 168.0}}, {"type": "Feature", "geometry": {"coordinates": [[[28.639159, 41.0088443], [28.6392838, 41.0088425], [28.6392874, 41.0089866], [28.6391626, 41.0089883], [28.639159, 41.0088443]]], "type": "Polygon"}, "properties": {"unit_id": "L0-U07", "level": 0, "category": "retail", "name": "Mavi", "area_m2": 168.0}}, {"type": "Feature", "geometry": {"coordinates": [[[28.6391527, 41.0085921], [28.6392776, 41.0085904], [28.6392811, 41.0087344], [28.6391563, 41.0087362], [28.6391527, 41.0085921]]], "type": "Polygon"}, "properties": {"unit_id": "L0-U08", "level": 0, "category": "retail", "name": "Colin's", "area_m2": 168.0}}, {"type": "Feature", "geometry": {"coordinates": [[[28.6392838, 41.0088425], [28.6394086, 41.0088407], [28.6394122, 41.0089848], [28.6392874, 41.0089866], [28.6392838, 41.0088425]]], "type": "Polygon"}, "properties": {"unit_id": "L0-U09", "level": 0, "category": "retail", "name": "Sinsay", "area_m2": 168.0}}, {"type": "Feature", "geometry": {"coordinates": [[[28.6392776, 41.0085904], [28.6394024, 41.0085886], [28.6394059, 41.0087327], [28.6392811, 41.0087344], [28.6392776, 41.0085904]]], "type": "Polygon"}, "properties": {"unit_id": "L0-U10", "level": 0, "category": "retail", "name": "Penti", "area_m2": 168.0}}, {"type": "Feature", "geometry": {"coordinates": [[[28.6394086, 41.0088407], [28.6395334, 41.0088389], [28.639537, 41.008983], [28.6394122, 41.0089848], [28.6394086, 41.0088407]]], "type": "Polygon"}, "properties": {"unit_id": "L0-U11", "level": 0, "category": "retail", "name": "Watsons", "area_m2": 168.0}}, {"type": "Feature", "geometry": {"coordinates": [[[28.6394024, 41.0085886], [28.6395272, 41.0085868], [28.6395308, 41.0087309], [28.6394059, 41.0087327], [28.6394024, 41.0085886]]], "type": "Polygon"}, "properties": {"unit_id": "L0-U12", "level": 0, "category": "retail", "name": "Gratis", "area_m2": 168.0}}, {"type": "Feature", "geometry": {"coordinates": [[[28.6395334, 41.0088389], [28.6396583, 41.0088372], [28.6396618, 41.0089812], [28.639537, 41.008983], [28.6395334, 41.0088389]]], "type": "Polygon"}, "properties": {"unit_id": "L0-U13", "level": 0, "category": "retail", "name": "FLO", "area_m2": 168.0}}, {"type": "Feature", "geometry": {"coordinates": [[[28.6395272, 41.0085868], [28.639652, 41.008585], [28.6396556, 41.0087291], [28.6395308, 41.0087309], [28.6395272, 41.0085868]]], "type": "Polygon"}, "properties": {"unit_id": "L0-U14", "level": 0, "category": "retail", "name": "Deichmann", "area_m2": 168.0}}, {"type": "Feature", "geometry": {"coordinates": [[[28.6396583, 41.0088372], [28.6397831, 41.0088354], [28.6397866, 41.0089795], [28.6396618, 41.0089812], [28.6396583, 41.0088372]]], "type": "Polygon"}, "properties": {"unit_id": "L0-U15", "level": 0, "category": "retail", "name": "English Home", "area_m2": 168.0}}, {"type": "Feature", "geometry": {"coordinates": [[[28.639652, 41.008585], [28.6397768, 41.0085833], [28.6397804, 41.0087273], [28.6396556, 41.0087291], [28.639652, 41.008585]]], "type": "Polygon"}, "properties": {"unit_id": "L0-U16", "level": 0, "category": "retail", "name": "Madame Coco", "area_m2": 168.0}}, {"type": "Feature", "geometry": {"coordinates": [[[28.6397768, 41.0085833], [28.6399016, 41.0085815], [28.6399052, 41.0087256], [28.6397804, 41.0087273], [28.6397768, 41.0085833]]], "type": "Polygon"}, "properties": {"unit_id": "L0-U17", "level": 0, "category": "retail", "name": "Mudo", "area_m2": 168.0}}, {"type": "Feature", "geometry": {"coordinates": [[[28.6399016, 41.0085815], [28.6400264, 41.0085797], [28.64003, 41.0087238], [28.6399052, 41.0087256], [28.6399016, 41.0085815]]], "type": "Polygon"}, "properties": {"unit_id": "L0-U18", "level": 0, "category": "retail", "name": "Yves Rocher", "area_m2": 168.0}}, {"type": "Feature", "geometry": {"coordinates": [[[28.6400327, 41.0088318], [28.6401575, 41.0088301], [28.6401611, 41.0089741], [28.6400363, 41.0089759], [28.6400327, 41.0088318]]], "type": "Polygon"}, "properties": {"unit_id": "L0-U19", "level": 0, "category": "retail", "name": "Karaca", "area_m2": 168.0}}, {"type": "Feature", "geometry": {"coordinates": [[[28.6400264, 41.0085797], [28.6401513, 41.0085779], [28.6401548, 41.008722], [28.64003, 41.0087238], [28.6400264, 41.0085797]]], "type": "Polygon"}, "properties": {"unit_id": "L0-U20", "level": 0, "category": "retail", "name": "Network", "area_m2": 168.0}}, {"type": "Feature", "geometry": {"coordinates": [[[28.6401575, 41.0088301], [28.6402823, 41.0088283], [28.6402859, 41.0089724], [28.6401611, 41.0089741], [28.6401575, 41.0088301]]], "type": "Polygon"}, "properties": {"unit_id": "L0-U21", "level": 0, "category": "retail", "name": "DeFacto", "area_m2": 168.0}}, {"type": "Feature", "geometry": {"coordinates": [[[28.6401513, 41.0085779], [28.6402761, 41.0085762], [28.6402796, 41.0087202], [28.6401548, 41.008722], [28.6401513, 41.0085779]]], "type": "Polygon"}, "properties": {"unit_id": "L0-U22", "level": 0, "category": "retail", "name": "Koton", "area_m2": 168.0}}, {"type": "Feature", "geometry": {"coordinates": [[[28.6402823, 41.0088283], [28.6404071, 41.0088265], [28.6404107, 41.0089706], [28.6402859, 41.0089724], [28.6402823, 41.0088283]]], "type": "Polygon"}, "properties": {"unit_id": "L0-U23", "level": 0, "category": "retail", "name": "Mavi", "area_m2": 168.0}}, {"type": "Feature", "geometry": {"coordinates": [[[28.6402761, 41.0085762], [28.6404009, 41.0085744], [28.6404045, 41.0087185], [28.6402796, 41.0087202], [28.6402761, 41.0085762]]], "type": "Polygon"}, "properties": {"unit_id": "L0-U24", "level": 0, "category": "retail", "name": "Colin's", "area_m2": 168.0}}, {"type": "Feature", "geometry": {"coordinates": [[[28.6404071, 41.0088265], [28.640532, 41.0088247], [28.6405355, 41.0089688], [28.6404107, 41.0089706], [28.6404071, 41.0088265]]], "type": "Polygon"}, "properties": {"unit_id": "L0-U25", "level": 0, "category": "retail", "name": "Sinsay", "area_m2": 168.0}}, {"type": "Feature", "geometry": {"coordinates": [[[28.6404009, 41.0085744], [28.6405257, 41.0085726], [28.6405293, 41.0087167], [28.6404045, 41.0087185], [28.6404009, 41.0085744]]], "type": "Polygon"}, "properties": {"unit_id": "L0-U26", "level": 0, "category": "retail", "name": "Penti", "area_m2": 168.0}}, {"type": "Feature", "geometry": {"coordinates": [[[28.640532, 41.0088247], [28.6406568, 41.008823], [28.6406603, 41.008967], [28.6405355, 41.0089688], [28.640532, 41.0088247]]], "type": "Polygon"}, "properties": {"unit_id": "L0-U27", "level": 0, "category": "retail", "name": "Watsons", "area_m2": 168.0}}, {"type": "Feature", "geometry": {"coordinates": [[[28.6405257, 41.0085726], [28.6406505, 41.0085708], [28.6406541, 41.0087149], [28.6405293, 41.0087167], [28.6405257, 41.0085726]]], "type": "Polygon"}, "properties": {"unit_id": "L0-U28", "level": 0, "category": "retail", "name": "Gratis", "area_m2": 168.0}}, {"type": "Feature", "geometry": {"coordinates": [[[28.6406568, 41.008823], [28.6407816, 41.0088212], [28.6407852, 41.0089652], [28.6406603, 41.008967], [28.6406568, 41.008823]]], "type": "Polygon"}, "properties": {"unit_id": "L0-U29", "level": 0, "category": "retail", "name": "FLO", "area_m2": 168.0}}, {"type": "Feature", "geometry": {"coordinates": [[[28.6406505, 41.0085708], [28.6407753, 41.008569], [28.6407789, 41.0087131], [28.6406541, 41.0087149], [28.6406505, 41.0085708]]], "type": "Polygon"}, "properties": {"unit_id": "L0-U30", "level": 0, "category": "retail", "name": "Deichmann", "area_m2": 168.0}}, {"type": "Feature", "geometry": {"coordinates": [[[28.6386538, 41.0088515], [28.6390104, 41.0088464], [28.639014, 41.0089905], [28.6386574, 41.0089955], [28.6386538, 41.0088515]]], "type": "Polygon"}, "properties": {"unit_id": "L1-U01", "level": 1, "category": "retail", "name": "Zara", "area_m2": 480.0}}, {"type": "Feature", "geometry": {"coordinates": [[[28.6386475, 41.0085993], [28.6390042, 41.0085943], [28.6390077, 41.0087383], [28.6386511, 41.0087434], [28.6386475, 41.0085993]]], "type": "Polygon"}, "properties": {"unit_id": "L1-U02", "level": 1, "category": "retail", "name": "Zara", "area_m2": 480.0}}, {"type": "Feature", "geometry": {"coordinates": [[[28.6408172, 41.0088207], [28.6411739, 41.0088156], [28.6411774, 41.0089597], [28.6408208, 41.0089647], [28.6408172, 41.0088207]]], "type": "Polygon"}, "properties": {"unit_id": "L1-U03", "level": 1, "category": "retail", "name": "H&M", "area_m2": 480.0}}, {"type": "Feature", "geometry": {"coordinates": [[[28.640811, 41.0085685], [28.6411676, 41.0085635], [28.6411712, 41.0087075], [28.6408146, 41.0087126], [28.640811, 41.0085685]]], "type": "Polygon"}, "properties": {"unit_id": "L1-U04", "level": 1, "category": "retail", "name": "H&M", "area_m2": 480.0}}, {"type": "Feature", "geometry": {"coordinates": [[[28.6390342, 41.008846], [28.639159, 41.0088443], [28.6391626, 41.0089883], [28.6390378, 41.0089901], [28.6390342, 41.008846]]], "type": "Polygon"}, "properties": {"unit_id": "L1-U05", "level": 1, "category": "retail", "name": "Bershka", "area_m2": 168.0}}, {"type": "Feature", "geometry": {"coordinates": [[[28.6390279, 41.0085939], [28.6391527, 41.0085921], [28.6391563, 41.0087362], [28.6390315, 41.008738], [28.6390279, 41.0085939]]], "type": "Polygon"}, "properties": {"unit_id": "L1-U06", "level": 1, "category": "retail", "name": "Pull&Bear", "area_m2": 168.0}}, {"type": "Feature", "geometry": {"coordinates": [[[28.639159, 41.0088443], [28.6392838, 41.0088425], [28.6392874, 41.0089866], [28.6391626, 41.0089883], [28.639159, 41.0088443]]], "type": "Polygon"}, "properties": {"unit_id": "L1-U07", "level": 1, "category": "retail", "name": "Stradivarius", "area_m2": 168.0}}, {"type": "Feature", "geometry": {"coordinates": [[[28.6391527, 41.0085921], [28.6392776, 41.0085904], [28.6392811, 41.0087344], [28.6391563, 41.0087362], [28.6391527, 41.0085921]]], "type": "Polygon"}, "properties": {"unit_id": "L1-U08", "level": 1, "category": "retail", "name": "Mango", "area_m2": 168.0}}, {"type": "Feature", "geometry": {"coordinates": [[[28.6392838, 41.0088425], [28.6394086, 41.0088407], [28.6394122, 41.0089848], [28.6392874, 41.0089866], [28.6392838, 41.0088425]]], "type": "Polygon"}, "properties": {"unit_id": "L1-U09", "level": 1, "category": "retail", "name": "Adidas", "area_m2": 168.0}}, {"type": "Feature", "geometry": {"coordinates": [[[28.6392776, 41.0085904], [28.6394024, 41.0085886], [28.6394059, 41.0087327], [28.6392811, 41.0087344], [28.6392776, 41.0085904]]], "type": "Polygon"}, "properties": {"unit_id": "L1-U10", "level": 1, "category": "retail", "name": "Nike", "area_m2": 168.0}}, {"type": "Feature", "geometry": {"coordinates": [[[28.6394086, 41.0088407], [28.6395334, 41.0088389], [28.639537, 41.008983], [28.6394122, 41.0089848], [28.6394086, 41.0088407]]], "type": "Polygon"}, "properties": {"unit_id": "L1-U11", "level": 1, "category": "retail", "name": "Puma", "area_m2": 168.0}}, {"type": "Feature", "geometry": {"coordinates": [[[28.6394024, 41.0085886], [28.6395272, 41.0085868], [28.6395308, 41.0087309], [28.6394059, 41.0087327], [28.6394024, 41.0085886]]], "type": "Polygon"}, "properties": {"unit_id": "L1-U12", "level": 1, "category": "retail", "name": "Under Armour", "area_m2": 168.0}}, {"type": "Feature", "geometry": {"coordinates": [[[28.6395334, 41.0088389], [28.6396583, 41.0088372], [28.6396618, 41.0089812], [28.639537, 41.008983], [28.6395334, 41.0088389]]], "type": "Polygon"}, "properties": {"unit_id": "L1-U13", "level": 1, "category": "retail", "name": "Xiaomi", "area_m2": 168.0}}, {"type": "Feature", "geometry": {"coordinates": [[[28.6395272, 41.0085868], [28.639652, 41.008585], [28.6396556, 41.0087291], [28.6395308, 41.0087309], [28.6395272, 41.0085868]]], "type": "Polygon"}, "properties": {"unit_id": "L1-U14", "level": 1, "category": "retail", "name": "EA7", "area_m2": 168.0}}, {"type": "Feature", "geometry": {"coordinates": [[[28.6396583, 41.0088372], [28.6397831, 41.0088354], [28.6397866, 41.0089795], [28.6396618, 41.0089812], [28.6396583, 41.0088372]]], "type": "Polygon"}, "properties": {"unit_id": "L1-U15", "level": 1, "category": "retail", "name": "Beymen", "area_m2": 168.0}}, {"type": "Feature", "geometry": {"coordinates": [[[28.639652, 41.008585], [28.6397768, 41.0085833], [28.6397804, 41.0087273], [28.6396556, 41.0087291], [28.639652, 41.008585]]], "type": "Polygon"}, "properties": {"unit_id": "L1-U16", "level": 1, "category": "retail", "name": "Twist", "area_m2": 168.0}}, {"type": "Feature", "geometry": {"coordinates": [[[28.6397768, 41.0085833], [28.6399016, 41.0085815], [28.6399052, 41.0087256], [28.6397804, 41.0087273], [28.6397768, 41.0085833]]], "type": "Polygon"}, "properties": {"unit_id": "L1-U17", "level": 1, "category": "retail", "name": "Ipekyol", "area_m2": 168.0}}, {"type": "Feature", "geometry": {"coordinates": [[[28.6399016, 41.0085815], [28.6400264, 41.0085797], [28.64003, 41.0087238], [28.6399052, 41.0087256], [28.6399016, 41.0085815]]], "type": "Polygon"}, "properties": {"unit_id": "L1-U18", "level": 1, "category": "retail", "name": "Vakko", "area_m2": 168.0}}, {"type": "Feature", "geometry": {"coordinates": [[[28.6400327, 41.0088318], [28.6401575, 41.0088301], [28.6401611, 41.0089741], [28.6400363, 41.0089759], [28.6400327, 41.0088318]]], "type": "Polygon"}, "properties": {"unit_id": "L1-U19", "level": 1, "category": "retail", "name": "Samsonite", "area_m2": 168.0}}, {"type": "Feature", "geometry": {"coordinates": [[[28.6400264, 41.0085797], [28.6401513, 41.0085779], [28.6401548, 41.008722], [28.64003, 41.0087238], [28.6400264, 41.0085797]]], "type": "Polygon"}, "properties": {"unit_id": "L1-U20", "level": 1, "category": "retail", "name": "D&R", "area_m2": 168.0}}, {"type": "Feature", "geometry": {"coordinates": [[[28.6401575, 41.0088301], [28.6402823, 41.0088283], [28.6402859, 41.0089724], [28.6401611, 41.0089741], [28.6401575, 41.0088301]]], "type": "Polygon"}, "properties": {"unit_id": "L1-U21", "level": 1, "category": "retail", "name": "Bershka", "area_m2": 168.0}}, {"type": "Feature", "geometry": {"coordinates": [[[28.6401513, 41.0085779], [28.6402761, 41.0085762], [28.6402796, 41.0087202], [28.6401548, 41.008722], [28.6401513, 41.0085779]]], "type": "Polygon"}, "properties": {"unit_id": "L1-U22", "level": 1, "category": "retail", "name": "Pull&Bear", "area_m2": 168.0}}, {"type": "Feature", "geometry": {"coordinates": [[[28.6402823, 41.0088283], [28.6404071, 41.0088265], [28.6404107, 41.0089706], [28.6402859, 41.0089724], [28.6402823, 41.0088283]]], "type": "Polygon"}, "properties": {"unit_id": "L1-U23", "level": 1, "category": "retail", "name": "Stradivarius", "area_m2": 168.0}}, {"type": "Feature", "geometry": {"coordinates": [[[28.6402761, 41.0085762], [28.6404009, 41.0085744], [28.6404045, 41.0087185], [28.6402796, 41.0087202], [28.6402761, 41.0085762]]], "type": "Polygon"}, "properties": {"unit_id": "L1-U24", "level": 1, "category": "retail", "name": "Mango", "area_m2": 168.0}}, {"type": "Feature", "geometry": {"coordinates": [[[28.6404071, 41.0088265], [28.640532, 41.0088247], [28.6405355, 41.0089688], [28.6404107, 41.0089706], [28.6404071, 41.0088265]]], "type": "Polygon"}, "properties": {"unit_id": "L1-U25", "level": 1, "category": "retail", "name": "Adidas", "area_m2": 168.0}}, {"type": "Feature", "geometry": {"coordinates": [[[28.6404009, 41.0085744], [28.6405257, 41.0085726], [28.6405293, 41.0087167], [28.6404045, 41.0087185], [28.6404009, 41.0085744]]], "type": "Polygon"}, "properties": {"unit_id": "L1-U26", "level": 1, "category": "retail", "name": "Nike", "area_m2": 168.0}}, {"type": "Feature", "geometry": {"coordinates": [[[28.640532, 41.0088247], [28.6406568, 41.008823], [28.6406603, 41.008967], [28.6405355, 41.0089688], [28.640532, 41.0088247]]], "type": "Polygon"}, "properties": {"unit_id": "L1-U27", "level": 1, "category": "retail", "name": "Puma", "area_m2": 168.0}}, {"type": "Feature", "geometry": {"coordinates": [[[28.6405257, 41.0085726], [28.6406505, 41.0085708], [28.6406541, 41.0087149], [28.6405293, 41.0087167], [28.6405257, 41.0085726]]], "type": "Polygon"}, "properties": {"unit_id": "L1-U28", "level": 1, "category": "retail", "name": "Under Armour", "area_m2": 168.0}}, {"type": "Feature", "geometry": {"coordinates": [[[28.6406568, 41.008823], [28.6407816, 41.0088212], [28.6407852, 41.0089652], [28.6406603, 41.008967], [28.6406568, 41.008823]]], "type": "Polygon"}, "properties": {"unit_id": "L1-U29", "level": 1, "category": "retail", "name": "Xiaomi", "area_m2": 168.0}}, {"type": "Feature", "geometry": {"coordinates": [[[28.6406505, 41.0085708], [28.6407753, 41.008569], [28.6407789, 41.0087131], [28.6406541, 41.0087149], [28.6406505, 41.0085708]]], "type": "Polygon"}, "properties": {"unit_id": "L1-U30", "level": 1, "category": "retail", "name": "EA7", "area_m2": 168.0}}, {"type": "Feature", "geometry": {"coordinates": [[[28.6386538, 41.0088515], [28.6390104, 41.0088464], [28.639014, 41.0089905], [28.6386574, 41.0089955], [28.6386538, 41.0088515]]], "type": "Polygon"}, "properties": {"unit_id": "L2-U01", "level": 2, "category": "food", "name": "Cinemaximum", "area_m2": 480.0}}, {"type": "Feature", "geometry": {"coordinates": [[[28.6386475, 41.0085993], [28.6390042, 41.0085943], [28.6390077, 41.0087383], [28.6386511, 41.0087434], [28.6386475, 41.0085993]]], "type": "Polygon"}, "properties": {"unit_id": "L2-U02", "level": 2, "category": "food", "name": "Cinemaximum", "area_m2": 480.0}}, {"type": "Feature", "geometry": {"coordinates": [[[28.6408172, 41.0088207], [28.6411739, 41.0088156], [28.6411774, 41.0089597], [28.6408208, 41.0089647], [28.6408172, 41.0088207]]], "type": "Polygon"}, "properties": {"unit_id": "L2-U03", "level": 2, "category": "food", "name": "MediaMarkt", "area_m2": 480.0}}, {"type": "Feature", "geometry": {"coordinates": [[[28.640811, 41.0085685], [28.6411676, 41.0085635], [28.6411712, 41.0087075], [28.6408146, 41.0087126], [28.640811, 41.0085685]]], "type": "Polygon"}, "properties": {"unit_id": "L2-U04", "level": 2, "category": "food", "name": "MediaMarkt", "area_m2": 480.0}}, {"type": "Feature", "geometry": {"coordinates": [[[28.6390342, 41.008846], [28.639159, 41.0088443], [28.6391626, 41.0089883], [28.6390378, 41.0089901], [28.6390342, 41.008846]]], "type": "Polygon"}, "properties": {"unit_id": "L2-U05", "level": 2, "category": "food", "name": "McDonald's", "area_m2": 168.0}}, {"type": "Feature", "geometry": {"coordinates": [[[28.6390279, 41.0085939], [28.6391527, 41.0085921], [28.6391563, 41.0087362], [28.6390315, 41.008738], [28.6390279, 41.0085939]]], "type": "Polygon"}, "properties": {"unit_id": "L2-U06", "level": 2, "category": "food", "name": "Burger King", "area_m2": 168.0}}, {"type": "Feature", "geometry": {"coordinates": [[[28.639159, 41.0088443], [28.6392838, 41.0088425], [28.6392874, 41.0089866], [28.6391626, 41.0089883], [28.639159, 41.0088443]]], "type": "Polygon"}, "properties": {"unit_id": "L2-U07", "level": 2, "category": "food", "name": "Popeyes", "area_m2": 168.0}}, {"type": "Feature", "geometry": {"coordinates": [[[28.6391527, 41.0085921], [28.6392776, 41.0085904], [28.6392811, 41.0087344], [28.6391563, 41.0087362], [28.6391527, 41.0085921]]], "type": "Polygon"}, "properties": {"unit_id": "L2-U08", "level": 2, "category": "food", "name": "Sushico", "area_m2": 168.0}}, {"type": "Feature", "geometry": {"coordinates": [[[28.6392838, 41.0088425], [28.6394086, 41.0088407], [28.6394122, 41.0089848], [28.6392874, 41.0089866], [28.6392838, 41.0088425]]], "type": "Polygon"}, "properties": {"unit_id": "L2-U09", "level": 2, "category": "food", "name": "Starbucks", "area_m2": 168.0}}, {"type": "Feature", "geometry": {"coordinates": [[[28.6392776, 41.0085904], [28.6394024, 41.0085886], [28.6394059, 41.0087327], [28.6392811, 41.0087344], [28.6392776, 41.0085904]]], "type": "Polygon"}, "properties": {"unit_id": "L2-U10", "level": 2, "category": "food", "name": "Little Caesars", "area_m2": 168.0}}, {"type": "Feature", "geometry": {"coordinates": [[[28.6394086, 41.0088407], [28.6395334, 41.0088389], [28.639537, 41.008983], [28.6394122, 41.0089848], [28.6394086, 41.0088407]]], "type": "Polygon"}, "properties": {"unit_id": "L2-U11", "level": 2, "category": "food", "name": "Dominos", "area_m2": 168.0}}, {"type": "Feature", "geometry": {"coordinates": [[[28.6394024, 41.0085886], [28.6395272, 41.0085868], [28.6395308, 41.0087309], [28.6394059, 41.0087327], [28.6394024, 41.0085886]]], "type": "Polygon"}, "properties": {"unit_id": "L2-U12", "level": 2, "category": "food", "name": "Simit Sarayi", "area_m2": 168.0}}, {"type": "Feature", "geometry": {"coordinates": [[[28.6395334, 41.0088389], [28.6396583, 41.0088372], [28.6396618, 41.0089812], [28.639537, 41.008983], [28.6395334, 41.0088389]]], "type": "Polygon"}, "properties": {"unit_id": "L2-U13", "level": 2, "category": "food", "name": "Gloria Jean's", "area_m2": 168.0}}, {"type": "Feature", "geometry": {"coordinates": [[[28.6395272, 41.0085868], [28.639652, 41.008585], [28.6396556, 41.0087291], [28.6395308, 41.0087309], [28.6395272, 41.0085868]]], "type": "Polygon"}, "properties": {"unit_id": "L2-U14", "level": 2, "category": "food", "name": "Baydoner", "area_m2": 168.0}}, {"type": "Feature", "geometry": {"coordinates": [[[28.6396583, 41.0088372], [28.6397831, 41.0088354], [28.6397866, 41.0089795], [28.6396618, 41.0089812], [28.6396583, 41.0088372]]], "type": "Polygon"}, "properties": {"unit_id": "L2-U15", "level": 2, "category": "food", "name": "Kahve Dunyasi", "area_m2": 168.0}}, {"type": "Feature", "geometry": {"coordinates": [[[28.639652, 41.008585], [28.6397768, 41.0085833], [28.6397804, 41.0087273], [28.6396556, 41.0087291], [28.639652, 41.008585]]], "type": "Polygon"}, "properties": {"unit_id": "L2-U16", "level": 2, "category": "food", "name": "Midpoint", "area_m2": 168.0}}, {"type": "Feature", "geometry": {"coordinates": [[[28.6397768, 41.0085833], [28.6399016, 41.0085815], [28.6399052, 41.0087256], [28.6397804, 41.0087273], [28.6397768, 41.0085833]]], "type": "Polygon"}, "properties": {"unit_id": "L2-U17", "level": 2, "category": "food", "name": "Teknosa", "area_m2": 168.0}}, {"type": "Feature", "geometry": {"coordinates": [[[28.6399016, 41.0085815], [28.6400264, 41.0085797], [28.64003, 41.0087238], [28.6399052, 41.0087256], [28.6399016, 41.0085815]]], "type": "Polygon"}, "properties": {"unit_id": "L2-U18", "level": 2, "category": "food", "name": "Toyzz Shop", "area_m2": 168.0}}, {"type": "Feature", "geometry": {"coordinates": [[[28.6400327, 41.0088318], [28.6401575, 41.0088301], [28.6401611, 41.0089741], [28.6400363, 41.0089759], [28.6400327, 41.0088318]]], "type": "Polygon"}, "properties": {"unit_id": "L2-U19", "level": 2, "category": "food", "name": "D&R", "area_m2": 168.0}}, {"type": "Feature", "geometry": {"coordinates": [[[28.6400264, 41.0085797], [28.6401513, 41.0085779], [28.6401548, 41.008722], [28.64003, 41.0087238], [28.6400264, 41.0085797]]], "type": "Polygon"}, "properties": {"unit_id": "L2-U20", "level": 2, "category": "food", "name": "GameGaraj", "area_m2": 168.0}}, {"type": "Feature", "geometry": {"coordinates": [[[28.6401575, 41.0088301], [28.6402823, 41.0088283], [28.6402859, 41.0089724], [28.6401611, 41.0089741], [28.6401575, 41.0088301]]], "type": "Polygon"}, "properties": {"unit_id": "L2-U21", "level": 2, "category": "food", "name": "McDonald's", "area_m2": 168.0}}, {"type": "Feature", "geometry": {"coordinates": [[[28.6401513, 41.0085779], [28.6402761, 41.0085762], [28.6402796, 41.0087202], [28.6401548, 41.008722], [28.6401513, 41.0085779]]], "type": "Polygon"}, "properties": {"unit_id": "L2-U22", "level": 2, "category": "food", "name": "Burger King", "area_m2": 168.0}}, {"type": "Feature", "geometry": {"coordinates": [[[28.6402823, 41.0088283], [28.6404071, 41.0088265], [28.6404107, 41.0089706], [28.6402859, 41.0089724], [28.6402823, 41.0088283]]], "type": "Polygon"}, "properties": {"unit_id": "L2-U23", "level": 2, "category": "food", "name": "Popeyes", "area_m2": 168.0}}, {"type": "Feature", "geometry": {"coordinates": [[[28.6402761, 41.0085762], [28.6404009, 41.0085744], [28.6404045, 41.0087185], [28.6402796, 41.0087202], [28.6402761, 41.0085762]]], "type": "Polygon"}, "properties": {"unit_id": "L2-U24", "level": 2, "category": "food", "name": "Sushico", "area_m2": 168.0}}, {"type": "Feature", "geometry": {"coordinates": [[[28.6404071, 41.0088265], [28.640532, 41.0088247], [28.6405355, 41.0089688], [28.6404107, 41.0089706], [28.6404071, 41.0088265]]], "type": "Polygon"}, "properties": {"unit_id": "L2-U25", "level": 2, "category": "food", "name": "Starbucks", "area_m2": 168.0}}, {"type": "Feature", "geometry": {"coordinates": [[[28.6404009, 41.0085744], [28.6405257, 41.0085726], [28.6405293, 41.0087167], [28.6404045, 41.0087185], [28.6404009, 41.0085744]]], "type": "Polygon"}, "properties": {"unit_id": "L2-U26", "level": 2, "category": "food", "name": "Little Caesars", "area_m2": 168.0}}, {"type": "Feature", "geometry": {"coordinates": [[[28.640532, 41.0088247], [28.6406568, 41.008823], [28.6406603, 41.008967], [28.6405355, 41.0089688], [28.640532, 41.0088247]]], "type": "Polygon"}, "properties": {"unit_id": "L2-U27", "level": 2, "category": "food", "name": "Dominos", "area_m2": 168.0}}, {"type": "Feature", "geometry": {"coordinates": [[[28.6405257, 41.0085726], [28.6406505, 41.0085708], [28.6406541, 41.0087149], [28.6405293, 41.0087167], [28.6405257, 41.0085726]]], "type": "Polygon"}, "properties": {"unit_id": "L2-U28", "level": 2, "category": "food", "name": "Simit Sarayi", "area_m2": 168.0}}, {"type": "Feature", "geometry": {"coordinates": [[[28.6406568, 41.008823], [28.6407816, 41.0088212], [28.6407852, 41.0089652], [28.6406603, 41.008967], [28.6406568, 41.008823]]], "type": "Polygon"}, "properties": {"unit_id": "L2-U29", "level": 2, "category": "food", "name": "Gloria Jean's", "area_m2": 168.0}}, {"type": "Feature", "geometry": {"coordinates": [[[28.6406505, 41.0085708], [28.6407753, 41.008569], [28.6407789, 41.0087131], [28.6406541, 41.0087149], [28.6406505, 41.0085708]]], "type": "Polygon"}, "properties": {"unit_id": "L2-U30", "level": 2, "category": "food", "name": "Baydoner", "area_m2": 168.0}}]}