{"type": "FeatureCollection", "name": "verticals", "crs": {"type": "name", "properties": {"name": "urn:ogc:def:crs:OGC:1.3:CRS84"}}, "features": [{"type": "Feature", "geometry": {"coordinates": [[[28.6393597, 41.0087874], [28.6393593, 41.0087923], [28.6393579, 41.0087971], [28.6393556, 41.0088017], [28.6393523, 41.008806], [28.6393481, 41.0088098], [28.6393432, 41.0088131], [28.6393377, 41.0088158], [28.6393317, 41.0088177], [28.6393254, 41.008819], [28.6393189, 41.0088195], [28.6393124, 41.0088192], [28.639306, 41.0088181], [28.6392999, 41.0088163], [28.6392943, 41.0088138], [28.6392893, 41.0088107], [28.6392849, 41.008807], [28.6392814, 41.0088028], [28.6392788, 41.0087983], [28.6392772, 41.0087935], [28.6392765, 41.0087885], [28.6392769, 41.0087836], [28.6392783, 41.0087788], [28.6392807, 41.0087742], [28.639284, 41.0087699], [28.6392882, 41.0087661], [28.639293, 41.0087628], [28.6392986, 41.0087601], [28.6393045, 41.0087582], [28.6393109, 41.0087569], [28.6393174, 41.0087564], [28.6393239, 41.0087567], [28.6393302, 41.0087578], [28.6393363, 41.0087596], [28.639342, 41.0087621], [28.639347, 41.0087653], [28.6393513, 41.008769], [28.6393549, 41.0087731], [28.6393575, 41.0087777], [28.6393591, 41.0087824], [28.6393597, 41.0087874]]], "type": "Polygon"}, "properties": {"conn_id": "ESC-1", "level": 0, "category": "escalator"}}, {"type": "Feature", "geometry": {"coordinates": [[[28.6404296, 41.0087721], [28.6404292, 41.0087771], [28.6404278, 41.0087819], [28.6404254, 41.0087865], [28.6404221, 41.0087908], [28.6404179, 41.0087946], [28.6404131, 41.0087979], [28.6404076, 41.0088005], [28.6404016, 41.0088025], [28.6403953, 41.0088038], [28.6403888, 41.0088042], [28.6403822, 41.008804], [28.6403759, 41.0088029], [28.6403698, 41.0088011], [28.6403642, 41.0087986], [28.6403591, 41.0087954], [28.6403548, 41.0087917], [28.6403513, 41.0087876], [28.6403486, 41.008783], [28.640347, 41.0087782], [28.6403464, 41.0087733], [28.6403468, 41.0087684], [28.6403482, 41.0087636], [28.6403505, 41.008759], [28.6403539, 41.0087547], [28.640358, 41.0087509], [28.6403629, 41.0087476], [28.6403684, 41.0087449], [28.6403744, 41.0087429], [28.6403807, 41.0087417], [28.6403872, 41.0087412], [28.6403937, 41.0087415], [28.6404001, 41.0087426], [28.6404062, 41.0087444], [28.6404118, 41.0087469], [28.6404168, 41.00875], [28.6404212, 41.0087537], [28.6404247, 41.0087579], [28.6404273, 41.0087624], [28.6404289, 41.0087672], [28.6404296, 41.0087721]]], "type": "Polygon"}, "properties": {"conn_id": "ESC-2", "level": 0, "category": "escalator"}}, {"type": "Feature", "geometry": {"coordinates": [[[28.6397692, 41.0087545], [28.6398286, 41.0087537], [28.6398299, 41.0088077], [28.6397705, 41.0088085], [28.6397692, 41.0087545]]], "type": "Polygon"}, "properties": {"conn_id": "ELEV-1", "level": 0, "category": "elevator"}}, {"type": "Feature", "geometry": {"coordinates": [[[28.6400426, 41.0087506], [28.640102, 41.0087498], [28.6401034, 41.0088038], [28.6400439, 41.0088047], [28.6400426, 41.0087506]]], "type": "Polygon"}, "properties": {"conn_id": "STAIR-1", "level": 0, "category": "stairs"}}, {"type": "Feature", "geometry": {"coordinates": [[[28.6393597, 41.0087874], [28.6393593, 41.0087923], [28.6393579, 41.0087971], [28.6393556, 41.0088017], [28.6393523, 41.008806], [28.6393481, 41.0088098], [28.6393432, 41.0088131], [28.6393377, 41.0088158], [28.6393317, 41.0088177], [28.6393254, 41.008819], [28.6393189, 41.0088195], [28.6393124, 41.0088192], [28.639306, 41.0088181], [28.6392999, 41.0088163], [28.6392943, 41.0088138], [28.6392893, 41.0088107], [28.6392849, 41.008807], [28.6392814, 41.0088028], [28.6392788, 41.0087983], [28.6392772, 41.0087935], [28.6392765, 41.0087885], [28.6392769, 41.0087836], [28.6392783, 41.0087788], [28.6392807, 41.0087742], [28.639284, 41.0087699], [28.6392882, 41.0087661], [28.639293, 41.0087628], [28.6392986, 41.0087601], [28.6393045, 41.0087582], [28.6393109, 41.0087569], [28.6393174, 41.0087564], [28.6393239, 41.0087567], [28.6393302, 41.0087578], [28.6393363, 41.0087596], [28.639342, 41.0087621], [28.639347, 41.0087653], [28.6393513, 41.008769], [28.6393549, 41.0087731], [28.6393575, 41.0087777], [28.6393591, 41.0087824], [28.6393597, 41.0087874]]], "type": "Polygon"}, "properties": {"conn_id": "ESC-1", "level": 1, "category": "escalator"}}, {"type": "Feature", "geometry": {"coordinates": [[[28.6404296, 41.0087721], [28.6404292, 41.0087771], [28.6404278, 41.0087819], [28.6404254, 41.0087865], [28.6404221, 41.0087908], [28.6404179, 41.0087946], [28.6404131, 41.0087979], [28.6404076, 41.0088005], [28.6404016, 41.0088025], [28.6403953, 41.0088038], [28.6403888, 41.0088042], [28.6403822, 41.008804], [28.6403759, 41.0088029], [28.6403698, 41.0088011], [28.6403642, 41.0087986], [28.6403591, 41.0087954], [28.6403548, 41.0087917], [28.6403513, 41.0087876], [28.6403486, 41.008783], [28.640347, 41.0087782], [28.6403464, 41.0087733], [28.6403468, 41.0087684], [28.6403482, 41.0087636], [28.6403505, 41.008759], [28.6403539, 41.0087547], [28.640358, 41.0087509], [28.6403629, 41.0087476], [28.6403684, 41.0087449], [28.6403744, 41.0087429], [28.6403807, 41.0087417], [28.6403872, 41.0087412], [28.6403937, 41.0087415], [28.6404001, 41.0087426], [28.6404062, 41.0087444], [28.6404118, 41.0087469], [28.6404168, 41.00875], [28.6404212, 41.0087537], [28.6404247, 41.0087579], [28.6404273, 41.0087624], [28.6404289, 41.0087672], [28.6404296, 41.0087721]]], "type": "Polygon"}, "properties": {"conn_id": "ESC-2", "level": 1, "category": "escalator"}}, {"type": "Feature", "geometry": {"coordinates": [[[28.6397692, 41.0087545], [28.6398286, 41.0087537], [28.6398299, 41.0088077], [28.6397705, 41.0088085], [28.6397692, 41.0087545]]], "type": "Polygon"}, "properties": {"conn_id": "ELEV-1", "level": 1, "category": "elevator"}}, {"type": "Feature", "geometry": {"coordinates": [[[28.6400426, 41.0087506], [28.640102, 41.0087498], [28.6401034, 41.0088038], [28.6400439, 41.0088047], [28.6400426, 41.0087506]]], "type": "Polygon"}, "properties": {"conn_id": "STAIR-1", "level": 1, "category": "stairs"}}, {"type": "Feature", "geometry": {"coordinates": [[[28.6393597, 41.0087874], [28.6393593, 41.0087923], [28.6393579, 41.0087971], [28.6393556, 41.0088017], [28.6393523, 41.008806], [28.6393481, 41.0088098], [28.6393432, 41.0088131], [28.6393377, 41.0088158], [28.6393317, 41.0088177], [28.6393254, 41.008819], [28.6393189, 41.0088195], [28.6393124, 41.0088192], [28.639306, 41.0088181], [28.6392999, 41.0088163], [28.6392943, 41.0088138], [28.6392893, 41.0088107], [28.6392849, 41.008807], [28.6392814, 41.0088028], [28.6392788, 41.0087983], [28.6392772, 41.0087935], [28.6392765, 41.0087885], [28.6392769, 41.0087836], [28.6392783, 41.0087788], [28.6392807, 41.0087742], [28.639284, 41.0087699], [28.6392882, 41.0087661], [28.639293, 41.0087628], [28.6392986, 41.0087601], [28.6393045, 41.0087582], [28.6393109, 41.0087569], [28.6393174, 41.0087564], [28.6393239, 41.0087567], [28.6393302, 41.0087578], [28.6393363, 41.0087596], [28.639342, 41.0087621], [28.639347, 41.0087653], [28.6393513, 41.008769], [28.6393549, 41.0087731], [28.6393575, 41.0087777], [28.6393591, 41.0087824], [28.6393597, 41.0087874]]], "type": "Polygon"}, "properties": {"conn_id": "ESC-1", "level": 2, "category": "escalator"}}, {"type": "Feature", "geometry": {"coordinates": [[[28.6404296, 41.0087721], [28.6404292, 41.0087771], [28.6404278, 41.0087819], [28.6404254, 41.0087865], [28.6404221, 41.0087908], [28.6404179, 41.0087946], [28.6404131, 41.0087979], [28.6404076, 41.0088005], [28.6404016, 41.0088025], [28.6403953, 41.0088038], [28.6403888, 41.0088042], [28.6403822, 41.008804], [28.6403759, 41.0088029], [28.6403698, 41.0088011], [28.6403642, 41.0087986], [28.6403591, 41.0087954], [28.6403548, 41.0087917], [28.6403513, 41.0087876], [28.6403486, 41.008783], [28.640347, 41.0087782], [28.6403464, 41.0087733], [28.6403468, 41.0087684], [28.6403482, 41.0087636], [28.6403505, 41.008759], [28.6403539, 41.0087547], [28.640358, 41.0087509], [28.6403629, 41.0087476], [28.6403684, 41.0087449], [28.6403744, 41.0087429], [28.6403807, 41.0087417], [28.6403872, 41.0087412], [28.6403937, 41.0087415], [28.6404001, 41.0087426], [28.6404062, 41.0087444], [28.6404118, 41.0087469], [28.6404168, 41.00875], [28.6404212, 41.0087537], [28.6404247, 41.0087579], [28.6404273, 41.0087624], [28.6404289, 41.0087672], [28.6404296, 41.0087721]]], "type": "Polygon"}, "properties": {"conn_id": "ESC-2", "level": 2, "category": "escalator"}}, {"type": "Feature", "geometry": {"coordinates": [[[28.6397692, 41.0087545], [28.6398286, 41.0087537], [28.6398299, 41.0088077], [28.6397705, 41.0088085], [28.6397692, 41.0087545]]], "type": "Polygon"}, "properties": {"conn_id": "ELEV-1", "level": 2, "category": "elevator"}}, {"type": "Feature", "geometry": {"coordinates": [[[28.6400426, 41.0087506], [28.640102, 41.0087498], [28.6401034, 41.0088038], [28.6400439, 41.0088047], [28.6400426, 41.0087506]]], "type": "Polygon"}, "properties": {"conn_id": "STAIR-1", "level": 2, "category": "stairs"}}]}