{"type": "FeatureCollection", "name": "walls", "crs": {"type": "name", "properties": {"name": "urn:ogc:def:crs:OGC:1.3:CRS84"}}, "features": [{"type": "Feature", "geometry": {"coordinates": [[28.6386, 41.0086], [28.6412152, 41.0085628], [28.641225, 41.008959], [28.6386098, 41.0089962], [28.6386, 41.0086]], "type": "LineString"}, "properties": {"level": 0, "wtype": "exterior"}}, {"type": "Feature", "geometry": {"coordinates": [[28.6386, 41.0086], [28.6412152, 41.0085628], [28.641225, 41.008959], [28.6386098, 41.0089962], [28.6386, 41.0086]], "type": "LineString"}, "properties": {"level": 1, "wtype": "exterior"}}, {"type": "Feature", "geometry": {"coordinates": [[28.6386, 41.0086], [28.6412152, 41.0085628], [28.641225, 41.008959], [28.6386098, 41.0089962], [28.6386, 41.0086]], "type": "LineString"}, "properties": {"level": 2, "wtype": "exterior"}}]}